#dP2023  8 21  6  0  0.00000000      96 __u+U ITR00 EXT  IAC
## 2276 108000.00000000   900.00000000 60177 0.2500000000000
+  119   C06C07C08C09C10C11C12C13C14C16C19C20C21C22C23C24C25
+        C26C27C28C29C30C32C33C34C35C36C37C38C39C40C41C42C43
+        C44C45C46E02E03E04E05E07E08E09E10E11E12E13E14E15E18
+        E19E21E24E25E26E27E30E31E33E34E36G01G02G03G04G05G06
+        G07G08G09G10G11G12G13G14G15G16G17G18G19G20G21G22G23
+        G24G25G26G27G28G29G30G31G32J02J03J04R01R02R03R04R05
+        R07R08R09R11R12R13R14R15R16R17R18R19R20R21R22R24R25
++         9  8 10  9  8 10  8 10  9  9  8  9  8  8  8 10  8
++         9 10 10  8  9  8  9  9  9  8  8  9  8 10  9 10  8
++         8 11  9  7  8  9  9  7  7  8  8  7  7  8  8  8  8
++         8  7  7  8  8  8  7  8  8  8  8  7  8  8  9  8  8
++         9  7  8  8  7  8  8  8  8  8  8  8  8  7  7  7  8
++         8  9  7  9  8  9  8  8  7 10 10 10  9  8  9  9  8
++         9  9  8  8  9  9  8  8  9  8  8  9  9  9 10  8  9
%c M  cc GPS ccc cccc cccc cccc cccc ccccc ccccc ccccc ccccc
%c cc cc ccc ccc cccc cccc cccc cccc ccccc ccccc ccccc ccccc
%f  0.0000000  0.000000000  0.00000000000  0.000000000000000
%f  0.0000000  0.000000000  0.00000000000  0.000000000000000
%i    0    0    0    0      0      0      0      0         0
%i    0    0    0    0      0      0      0      0         0
/* IAC                                ULTRA-RAPID PREDICTION
/* S/V CLOCKS ARE ALIGNED TO GNSS TIME                      
/* G:C1WC2W R:C1PC2P E:C1XC5X C:C2IC6I J:C1CC2S             
/* PCV:IGS20_2274 OL/AL:FES2004  NONE     YN ORB:CoN CLK:CoN
*  2023 08 21  7  0  0.00000000
PC06 -10081.652290  40664.151347   5994.371944    931.570624
PC07  -5517.954311  27697.247528 -31180.468945     37.089351
PC08 -19233.361027  25434.627887  27441.039240    380.912153
PC09  -6064.782186  41943.106543  -2417.820521    266.170204
PC10   1991.302016  29863.719884 -29190.865500   -152.307598
PC11   7101.132988 -23285.942785  13734.398332    790.329327
PC12  14830.679528  -5396.758590  23052.491183    888.947562
PC13 -11562.230359  26416.188779  30780.972007    338.018565
PC14   8951.178438 -13183.786067 -22897.007386    264.448567
PC16 -11879.937610  39603.340148   9288.574572    -44.686665
PC19   1562.878223  16972.665097  22107.023568   -964.919477
PC20 -16657.620580   8266.503579  20819.670128    345.513833
PC21  26325.042076   6226.938818  -6795.493354   -953.120663
PC22  19873.815113  16392.083391  10684.280927   -342.169654
PC23  -8786.926054 -13818.977059  22607.562097   -897.889447
PC24  22760.893728 -16135.970025  -1053.212705    306.753658
PC25   8587.080149 -21310.093076  15847.999326    193.968405
PC26  22610.678187  -3062.338542 -16101.463880   -166.254466
PC27 -16148.699528  -4381.302076 -22353.234474    187.522113
PC28 -11764.340600 -21477.145039 -13387.984562    140.333755
PC29    353.356433  27386.565455  -5339.302360    163.745705
PC30 -11699.983464  15716.453957 -19884.465269     -3.773148
PC32 -26405.663820  -6092.907347   6697.728537   -531.279839
PC33  -1579.992350 -16966.695214 -22106.745211   -942.945756
PC34  11055.529794 -17016.870379  19136.926862    241.822726
PC35  12486.810433  21219.666875  13153.554423    563.357370
PC36  -9828.668837  21161.709991 -15272.707354   -265.742698
PC37 -22277.723024   1701.743078  16723.711976   -811.204519
PC38 -25291.487464  26839.472789  20292.746376     99.554465
PC39 -12958.463943  37283.686588  15201.002515     -4.420172
PC40  -9432.671869  21762.552932 -34808.345105    -33.649429
PC41 -19443.387964 -16532.575087 -11252.265673   -886.064564
PC42  17853.752841  -7349.152150 -20103.611305   -571.205936
PC43    303.640950 -27215.571301   6117.468713     36.201713
PC44  16431.717747   4008.979963  22185.539873    206.659530
PC45   9226.233973  13340.980938 -22701.068283    -16.449984
PC46 -22244.968877  16813.109605   -231.908414    -78.159222
PE02  -7866.181861 -15804.121753  23761.421525     56.918973
PE03 -12684.231718 -26028.186471  -6191.545552    -48.038350
PE04  21532.261577  16338.485684 -12058.831570   -194.125549
PE05   3631.909860 -20591.526889 -20952.910398     10.968520
PE07 -17987.704214   2738.906043  23352.103277    -68.931255
PE08 -21435.741744 -16710.238222  11738.235258   -133.647348
PE09  17932.497782  -2547.934510 -23409.271448   -127.941374
PE10  18018.885403  -3206.416125  23255.544588   -557.696342
PE11  19227.645868 -14171.556905  17464.759855   2769.639007
PE12  14292.415033   7359.983740  24845.887926   -666.216721
PE13 -19194.712537  13518.266353 -18028.330561    -19.470808
PE14  10637.982381  21974.269202  -2143.699542    317.367821
PE15 -14031.918308  -7729.026419 -24890.704385    -46.791077
PE18 -20727.855366 -23090.860399  -8169.631252    438.077629
PE19  10746.763711  26216.469914   8569.946647  -1804.603023
PE21 -13551.126728  15640.070074 -21158.358197   -547.902377
PE24  28471.431717  -5931.154397   5558.263037   -277.515469
PE25  13918.730014 -15557.399811  20998.033048     -0.575299
PE26 -12671.651235  26744.450927      8.921723    198.986935
PE27 -28233.100145   6402.875984  -6146.562628   -129.865954
PE30 -25851.249013  -6884.405375  12656.152256   -435.113819
PE31  26131.005427   6482.013893 -12289.379227     -3.170183
PE33    252.535544  24474.082069  16633.291456     -1.325607
PE34   -785.239008 -24158.241123 -17107.560236    -62.689237
PE36  13050.734482 -26559.152215    705.950798   -104.197354
PG01  14435.773000 -21612.007616   4154.588635    167.844809
PG02  16060.732854 -17588.324681  12074.298021   -563.123851
PG03  15967.413911 -12493.098069 -17241.757533   -176.758230
PG04   5905.545696 -16687.977109 -19753.773001    132.033741
PG05 -25822.792781   5216.522221   3613.744178   -139.620866
PG06 -10108.644602 -11449.641812 -21656.276460    563.262940
PG07   3294.638302 -23922.037993  10961.847347     89.796663
PG08  13989.653093  -6488.572754  21576.120490   -138.240469
PG09  -3011.600160 -22168.296033 -14358.880839    -81.115093
PG10  15930.942112  11351.992957  18294.119445    -50.144463
PG11 -17368.968102   2790.442317 -19872.288049   -330.661021
PG12 -19851.462503  10002.999535 -14751.954961   -415.404414
PG13 -16806.319786  -3195.682329  20184.664832    562.741189
PG14 -12357.129357 -13529.868992  19305.422017    160.548109
PG15 -12751.410729   9061.125811  21000.371163     69.671030
PG16  26782.423884   1164.915973   -525.864057   -465.413384
PG17 -13311.648900 -22901.443527   -261.052570    722.998657
PG18  -2374.347270  23104.290856  12722.900285   -389.945264
PG19 -16621.243270 -19046.839881  -8890.306925    360.550056
PG20 -25369.722660    404.228284  -7479.094036    416.103525
PG21  16595.511991 -14874.067472  14254.192785    150.376603
PG22 -18628.425692 -11348.798619  15423.736122    137.576887
PG23   2346.199937  14753.127764  21969.280095     57.757798
PG24 -14860.753028  19655.504997   8965.997718   -296.102457
PG25  -5929.790001  15446.528664 -21040.984243    463.362925
PG26  23688.168995   5355.643652 -11273.323465    232.086165
PG27  18821.452251   6456.227811  17539.065835    -25.754719
PG28   9783.767635  13399.225923 -20762.702209     74.141696
PG29    950.268460  22143.154504 -14608.187822   -608.146308
PG30  -4646.618388 -19372.888393  17562.895722   -494.706728
PG31  15824.105784   2537.797847 -21416.416286   -222.175589
PG32  16898.290179  20211.143986  -3968.485243   -544.344495
PJ02 -33816.260528  15372.022594 -15307.675159     -2.840860
PJ03 -22293.843363  31099.221878 -12997.530348     -1.359898
PJ04 -25608.317029  27628.138137  24769.663603     70.486893
PR01  18084.074162   1208.684917 -17948.023895     63.939968
PR02   3247.438315 -10720.134260 -22872.184157    -22.504660
PR03 -13043.196623 -16657.206970 -14164.258484     83.711933
PR04 -21604.953902 -13382.416739   2124.911774    199.546942
PR05 -18532.624504  -2876.469822  17282.804049    117.678792
PR07  13691.455999  16774.191992  13562.303177     62.905271
PR08  21724.719536  13214.214571  -2184.862689    -72.203798
PR09 -15214.345775  15607.960384 -13296.361923    137.844039
PR11  16006.141445   2274.244549 -19709.123637   -138.501499
PR12  23273.881295  -9708.881700  -3850.364814     30.398598
PR13  16910.402218 -15118.653260  11659.399041    -38.377261
PR14  -1113.149075 -11783.633870  22611.368168     25.107580
PR15 -17016.178566  -1638.465565  18960.792852     86.836387
PR16 -23228.110274   9708.714877   4240.415053     17.905607
PR17  -2212.008358 -24005.330384  -8408.295397     10.682314
PR18  -8430.207570 -12111.155173 -20782.657110     97.836037
PR19 -10637.106597   4021.475831 -22834.084674   -244.282208
PR20  -6920.260318  22432.790255 -10010.591967    -98.669507
PR21   2517.733538  23532.136885   9467.276433    -31.972152
PR22   8718.849866  11483.614268  21067.927804    116.591546
PR24   6071.219575 -22948.964386   9383.658983    -21.285307
PR25   1248.595002  24064.031758   8332.030431     41.599386
EOF
